0 FENGYUN 1C DEB
1 31809U 99025CGX 13282.37401145  .00004188  00000-0  14683-2 0  1039
2 31809 098.8302 335.9665 0039240 031.0637 329.3970 14.35168037333019
0 FENGYUN 1C DEB
1 31809U 99025CGX 13283.90777194  .00004251  00000-0  14899-2 0  1040
2 31809 098.8274 337.5242 0038744 031.1384 329.2678 14.35183213333235
0 FENGYUN 1C DEB
1 31809U 99025CGX 13287.39355407  .00004390  00000-0  15360-2 0  1066
2 31809 098.8232 341.0784 0040208 014.1741 346.0727 14.35217762333730
0 FENGYUN 1C DEB
1 31809U 99025CGX 13289.34555742  .00004487  00000-0  15683-2 0  1073
2 31809 098.8195 343.0596 0041084 005.6871 354.5159 14.35238493334012
0 FENGYUN 1C DEB
1 31809U 99025CGX 13290.39125983  .00004591  00000-0  16026-2 0  1089
2 31809 098.8185 344.1249 0042705 359.5376 000.6383 14.35251110334165
0 FENGYUN 1C DEB
1 31809U 99025CGX 13291.92493940  .00004672  00000-0  16332-2 0  1091
2 31809 098.8256 345.7088 0038358 003.7763 356.4689 14.35268234334389
0 FENGYUN 1C DEB
1 31809U 99025CGX 13293.38888195  .00004779  00000-0  16685-2 0  1104
2 31809 098.8244 347.2046 0039945 357.7483 002.3938 14.35284927334595
0 FENGYUN 1C DEB
1 31809U 99025CGX 13295.34079622  .00004846  00000-0  16905-2 0  1110
2 31809 098.8213 349.1919 0040549 351.7809 008.3032 14.35305717334872
